{
  "type": "Feature",
  "properties": {
    "name": "인하대후문",
    "boundary_type": "연구자 설정 분석 경계",
    "reason": "",
    "created_at": "2026-09-15T12:57:39.604Z"
  },
  "geometry": {
    "type": "Polygon",
    "coordinates": [
      [
        [
          126.65315866470338,
          37.45226431167233
        ],
        [
          126.66136622428895,
          37.45005832525226
        ],
        [
          126.66198849678041,
          37.45151479462586
        ],
        [
          126.66056156158449,
          37.451991760888035
        ],
        [
          126.658673286438,
          37.45361959828536
        ],
        [
          126.65315866470338,
          37.45226431167233
        ]
      ]
    ]
  }
}